[{"OBJECT_NAME":"STARLINK-6043","OBJECT_ID":"2023-064S","EPOCH":"2026-03-09T14:14:21.369696","MEAN_MOTION":14.98324758,"ECCENTRICITY":0.000321,"INCLINATION":70.0007,"RA_OF_ASC_NODE":144.6208,"ARG_OF_PERICENTER":270.9566,"MEAN_ANOMALY":89.1225,"EPHEMERIS_TYPE":0,"CLASSIFICATION_TYPE":"U","NORAD_CAT_ID":56464,"ELEMENT_SET_NO":999,"REV_AT_EPOCH":15523,"BSTAR":-4.9377e-5,"MEAN_MOTION_DOT":-6.82e-6,"MEAN_MOTION_DDOT":0},{"OBJECT_NAME":"FENGYUN 1C DEB","OBJECT_ID":"1999-025AEH","EPOCH":"2026-03-09T22:48:21.206880","MEAN_MOTION":14.8573293,"ECCENTRICITY":0.01077809,"INCLINATION":98.8499,"RA_OF_ASC_NODE":243.2798,"ARG_OF_PERICENTER":197.684,"MEAN_ANOMALY":322.9923,"EPHEMERIS_TYPE":0,"CLASSIFICATION_TYPE":"U","NORAD_CAT_ID":30418,"ELEMENT_SET_NO":999,"REV_AT_EPOCH":1886,"BSTAR":0.0011748472,"MEAN_MOTION_DOT":0.00011272,"MEAN_MOTION_DDOT":0}]
